[{"OBJECT_NAME":"STARLINK-30422","OBJECT_ID":"2023-138U","EPOCH":"2026-03-09T22:00:01.999584","MEAN_MOTION":15.26712345,"ECCENTRICITY":0.00013267,"INCLINATION":43.0003,"RA_OF_ASC_NODE":232.7341,"ARG_OF_PERICENTER":277.8941,"MEAN_ANOMALY":127.611,"EPHEMERIS_TYPE":0,"CLASSIFICATION_TYPE":"U","NORAD_CAT_ID":57826,"ELEMENT_SET_NO":999,"REV_AT_EPOCH":578,"BSTAR":0.0026475051,"MEAN_MOTION_DOT":0.00071386,"MEAN_MOTION_DDOT":0},{"OBJECT_NAME":"OBJECT F","OBJECT_ID":"2021-022F","EPOCH":"2026-03-09T23:37:37.165152","MEAN_MOTION":15.31317672,"ECCENTRICITY":0.00120882,"INCLINATION":97.3982,"RA_OF_ASC_NODE":329.8375,"ARG_OF_PERICENTER":85.9268,"MEAN_ANOMALY":274.3355,"EPHEMERIS_TYPE":0,"CLASSIFICATION_TYPE":"U","NORAD_CAT_ID":47937,"ELEMENT_SET_NO":999,"REV_AT_EPOCH":27452,"BSTAR":0.00038690553,"MEAN_MOTION_DOT":0.00011656,"MEAN_MOTION_DDOT":0}]
